OBJECT_NAME,OBJECT_ID,EPOCH,MEAN_MOTION,ECCENTRICITY,INCLINATION,RA_OF_ASC_NODE,ARG_OF_PERICENTER,MEAN_ANOMALY,EPHEMERIS_TYPE,CLASSIFICATION_TYPE,NORAD_CAT_ID,ELEMENT_SET_NO,REV_AT_EPOCH,BSTAR,MEAN_MOTION_DOT,MEAN_MOTION_DDOT
ONEWEB-0572,2023-004M,2026-07-05T23:19:26.808384,13.17650516,.00020245,87.9137,2.1280,91.4968,268.6396,0,U,55151,999,16995,-.41135508E-4,-.3E-7,0
ONEWEB-0573,2023-004N,2026-07-05T22:22:33.996288,13.18687019,.00027012,87.9177,331.7398,103.3100,256.8334,0,U,55152,999,17216,.15394788E-3,.74E-6,0
ONEWEB-0588,2023-004P,2026-07-05T22:12:52.412832,13.18685840,.00022718,87.9177,331.7409,88.5195,271.6197,0,U,55153,999,17216,.12835877E-3,.64E-6,0
ONEWEB-0598,2023-004Q,2026-07-06T01:57:52.462080,13.11414757,.00023214,87.8880,17.3059,104.1231,256.0155,0,U,55154,999,16837,-.63778343E-3,-.213E-5,0
ONEWEB-0599,2023-004R,2026-07-06T00:12:53.154720,13.17649837,.00017769,87.9135,2.1190,97.9846,262.1487,0,U,55155,999,16996,.2087452E-5,.14E-6,0
ONEWEB-0614,2023-004S,2026-07-06T01:50:33.000576,13.11414188,.00018625,87.8875,17.3154,81.4120,278.7219,0,U,55156,999,16831,-.25037478E-4,.4E-7,0
ONEWEB-0616,2023-004T,2026-07-05T21:34:56.389728,13.17650581,.00013414,87.9138,2.1449,118.6237,241.5029,0,U,55157,999,17016,.29846079E-4,.24E-6,0
ONEWEB-0617,2023-004U,2026-07-06T01:33:28.305216,13.11416405,.00020959,87.8882,17.3099,78.9082,281.2281,0,U,55158,999,16833,.12850735E-2,.468E-5,0
ONEWEB-0618,2023-004V,2026-07-05T23:19:19.757280,15.13318204,.00106716,86.9098,170.0072,211.2462,148.8145,0,U,55159,999,18510,.29976591E-3,.5375E-4,0
ONEWEB-0619,2023-004W,2026-07-06T00:10:27.518016,13.17649984,.00015634,87.9147,2.1056,80.5784,279.5524,0,U,55160,999,17007,.12015226E-3,.6E-6,0
ONEWEB-0620,2023-004X,2026-07-06T01:26:08.829024,13.11415729,.00021044,87.8876,17.3184,91.7589,268.3780,0,U,55161,999,16830,.14063896E-2,.511E-5,0
ONEWEB-0621,2023-004Y,2026-07-06T02:05:11.597856,13.11415026,.00018326,87.8888,17.3036,81.3530,278.7806,0,U,55162,999,16828,-.10969203E-2,-.376E-5,0
ONEWEB-0622,2023-004Z,2026-07-06T02:12:31.151808,13.11416228,.00024053,87.8889,17.3053,76.5284,283.6112,0,U,55163,999,16827,-.13370629E-2,-.461E-5,0
ONEWEB-0623,2023-004AA,2026-07-06T00:03:09.173664,13.17647917,.0002007,87.9134,2.1346,67.7563,292.3781,0,U,55164,999,17006,.77519933E-4,.43E-6,0
ONEWEB-0624,2023-004AB,2026-07-05T22:36:54.703584,13.12929467,.00017911,87.8957,346.8520,89.4759,270.6575,0,U,55165,999,17053,-.68485312E-3,-.235E-5,0
ONEWEB-0625,2023-004AC,2026-07-05T23:48:35.229888,13.17649953,.00017015,87.9135,2.1328,93.4427,266.6900,0,U,55166,999,17005,.16747328E-3,.78E-6,0
ONEWEB-0626,2023-004AD,2026-07-05T23:34:01.671456,13.17639468,.00019674,87.9137,2.1341,98.7161,261.4193,0,U,55167,999,17005,.5421368E-2,.2118E-4,0
ONEWEB-0627,2023-004AE,2026-07-06T01:06:20.477376,13.17648138,.00019294,87.9136,2.1220,75.8720,284.2626,0,U,55168,999,17006,.73727422E-4,.42E-6,0
ONEWEB-0628,2023-004AF,2026-07-06T00:09:55.488672,13.12442195,.00017769,87.8960,346.9104,72.6450,287.4872,0,U,55169,999,17050,-.99065906E-3,-.344E-5,0
ONEWEB-0629,2023-004AG,2026-07-06T00:31:06.979584,13.17649148,.00016161,87.9136,2.1228,84.2817,275.8498,0,U,55170,999,17006,.4817288E-4,.32E-6,0
ONEWEB-0631,2023-004AH,2026-07-05T20:13:53.970528,13.18686444,.00023611,87.9186,331.7252,94.4137,265.7265,0,U,55171,999,17213,.11112071E-3,.57E-6,0
ONEWEB-0709,2023-004AJ,2026-07-06T01:11:30.008832,13.11417298,.00024791,87.8878,17.3227,105.1227,255.0175,0,U,55172,999,16834,.12750813E-2,.465E-5,0
ONEWEB-0710,2023-004AK,2026-07-06T00:51:45.310176,13.17648113,.0001963,87.9136,2.1150,86.4955,273.6401,0,U,55173,999,17006,.14092435E-4,.18E-6,0
ONEWEB-0711,2023-004AL,2026-07-06T02:19:50.580480,13.11416558,.0002203,87.8881,17.3012,70.8297,289.3069,0,U,55174,999,16831,-.14132321E-2,-.488E-5,0
ONEWEB-0713,2023-004AM,2026-07-06T00:56:50.818848,13.11417571,.00020378,87.8882,17.3144,78.3855,281.7501,0,U,55175,999,16829,.55177006E-3,.208E-5,0
ONEWEB-0715,2023-004AN,2026-07-06T00:49:30.918432,13.11417408,.00024908,87.8881,17.3160,96.0354,264.1057,0,U,55176,999,16833,-.37649308E-3,-.121E-5,0
ONEWEB-0716,2023-004AP,2026-07-06T00:42:02.000448,13.17648174,.00016914,87.9136,2.1193,95.6695,264.4630,0,U,55177,999,17006,-.75649216E-4,-.16E-6,0
ONEWEB-0717,2023-004AQ,2026-07-06T00:17:45.118464,13.17649259,.00022859,87.9147,2.1120,80.4393,279.6996,0,U,55178,999,17011,.38439666E-4,.28E-6,0
ONEWEB-0719,2023-004AR,2026-07-05T22:42:58.745664,13.17650569,.00016612,87.9146,2.1055,90.1208,270.0114,0,U,55179,999,17005,.12940664E-3,.63E-6,0
ONEWEB-0530,2023-029A,2026-07-06T04:20:07.493856,13.20772347,.00019987,87.9181,270.6829,86.0725,274.0637,0,U,55796,999,16365,.28597136E-3,.129E-5,0
