[
  {
    "name": "ONEWEB-0572",
    "noradId": "55151",
    "line1": "1 55151U 23004M   26186.97183806 -.00000003  00000+0 -41136-4 0  9994",
    "line2": "2 55151  87.9137   2.1280 0002024  91.4968 268.6396 13.17650516169957"
  },
  {
    "name": "ONEWEB-0573",
    "noradId": "55152",
    "line1": "1 55152U 23004N   26186.93233792  .00000074  00000+0  15395-3 0  9994",
    "line2": "2 55152  87.9177 331.7398 0002701 103.3100 256.8334 13.18687019172163"
  },
  {
    "name": "ONEWEB-0588",
    "noradId": "55153",
    "line1": "1 55153U 23004P   26186.92560663  .00000064  00000+0  12836-3 0  9990",
    "line2": "2 55153  87.9177 331.7409 0002271  88.5195 271.6197 13.18685840172169"
  },
  {
    "name": "ONEWEB-0598",
    "noradId": "55154",
    "line1": "1 55154U 23004Q   26187.08185720 -.00000213  00000+0 -63778-3 0  9995",
    "line2": "2 55154  87.8880  17.3059 0002321 104.1231 256.0155 13.11414757168379"
  },
  {
    "name": "ONEWEB-0599",
    "noradId": "55155",
    "line1": "1 55155U 23004R   26187.00894855  .00000014  00000+0  20875-5 0  9994",
    "line2": "2 55155  87.9135   2.1190 0001776  97.9846 262.1487 13.17649837169963"
  },
  {
    "name": "ONEWEB-0614",
    "noradId": "55156",
    "line1": "1 55156U 23004S   26187.07677084  .00000004  00000+0 -25037-4 0  9999",
    "line2": "2 55156  87.8875  17.3154 0001862  81.4120 278.7219 13.11414188168318"
  },
  {
    "name": "ONEWEB-0616",
    "noradId": "55157",
    "line1": "1 55157U 23004T   26186.89926377  .00000024  00000+0  29846-4 0  9994",
    "line2": "2 55157  87.9138   2.1449 0001341 118.6237 241.5029 13.17650581170163"
  },
  {
    "name": "ONEWEB-0617",
    "noradId": "55158",
    "line1": "1 55158U 23004U   26187.06491094  .00000468  00000+0  12851-2 0  9996",
    "line2": "2 55158  87.8882  17.3099 0002095  78.9082 281.2281 13.11416405168337"
  },
  {
    "name": "ONEWEB-0618",
    "noradId": "55159",
    "line1": "1 55159U 23004V   26186.97175645  .00005375  00000+0  29977-3 0  9997",
    "line2": "2 55159  86.9098 170.0072 0010671 211.2462 148.8145 15.13318204185101"
  },
  {
    "name": "ONEWEB-0619",
    "noradId": "55160",
    "line1": "1 55160U 23004W   26187.00726294  .00000060  00000+0  12015-3 0  9997",
    "line2": "2 55160  87.9147   2.1056 0001563  80.5784 279.5524 13.17649984170077"
  },
  {
    "name": "ONEWEB-0620",
    "noradId": "55161",
    "line1": "1 55161U 23004X   26187.05982441  .00000511  00000+0  14064-2 0  9997",
    "line2": "2 55161  87.8876  17.3184 0002104  91.7589 268.3780 13.11415729168300"
  },
  {
    "name": "ONEWEB-0621",
    "noradId": "55162",
    "line1": "1 55162U 23004Y   26187.08693979 -.00000376  00000+0 -10969-2 0  9997",
    "line2": "2 55162  87.8888  17.3036 0001832  81.3530 278.7806 13.11415026168289"
  },
  {
    "name": "ONEWEB-0622",
    "noradId": "55163",
    "line1": "1 55163U 23004Z   26187.09202722 -.00000461  00000+0 -13371-2 0  9996",
    "line2": "2 55163  87.8889  17.3053 0002405  76.5284 283.6112 13.11416228168278"
  },
  {
    "name": "ONEWEB-0623",
    "noradId": "55164",
    "line1": "1 55164U 23004AA  26187.00218951  .00000043  00000+0  77520-4 0  9991",
    "line2": "2 55164  87.9134   2.1346 0002007  67.7563 292.3781 13.17647917170066"
  },
  {
    "name": "ONEWEB-0624",
    "noradId": "55165",
    "line1": "1 55165U 23004AB  26186.94229981 -.00000235  00000+0 -68485-3 0  9993",
    "line2": "2 55165  87.8957 346.8520 0001791  89.4759 270.6575 13.12929467170538"
  },
  {
    "name": "ONEWEB-0625",
    "noradId": "55166",
    "line1": "1 55166U 23004AC  26186.99207442  .00000078  00000+0  16747-3 0  9994",
    "line2": "2 55166  87.9135   2.1328 0001701  93.4427 266.6900 13.17649953170052"
  },
  {
    "name": "ONEWEB-0626",
    "noradId": "55167",
    "line1": "1 55167U 23004AD  26186.98196379  .00002118  00000+0  54214-2 0  9997",
    "line2": "2 55167  87.9137   2.1341 0001967  98.7161 261.4193 13.17639468170054"
  },
  {
    "name": "ONEWEB-0627",
    "noradId": "55168",
    "line1": "1 55168U 23004AE  26187.04607034  .00000042  00000+0  73727-4 0  9997",
    "line2": "2 55168  87.9136   2.1220 0001929  75.8720 284.2626 13.17648138170064"
  },
  {
    "name": "ONEWEB-0628",
    "noradId": "55169",
    "line1": "1 55169U 23004AF  26187.00689223 -.00000344  00000+0 -99066-3 0  9994",
    "line2": "2 55169  87.8960 346.9104 0001776  72.6450 287.4872 13.12442195170501"
  },
  {
    "name": "ONEWEB-0629",
    "noradId": "55170",
    "line1": "1 55170U 23004AG  26187.02160856  .00000032  00000+0  48173-4 0  9990",
    "line2": "2 55170  87.9136   2.1228 0001616  84.2817 275.8498 13.17649148170064"
  },
  {
    "name": "ONEWEB-0631",
    "noradId": "55171",
    "line1": "1 55171U 23004AH  26186.84298577  .00000057  00000+0  11112-3 0  9991",
    "line2": "2 55171  87.9186 331.7252 0002361  94.4137 265.7265 13.18686444172135"
  },
  {
    "name": "ONEWEB-0709",
    "noradId": "55172",
    "line1": "1 55172U 23004AJ  26187.04965288  .00000465  00000+0  12751-2 0  9997",
    "line2": "2 55172  87.8878  17.3227 0002479 105.1227 255.0175 13.11417298168344"
  },
  {
    "name": "ONEWEB-0710",
    "noradId": "55173",
    "line1": "1 55173U 23004AK  26187.03594109  .00000018  00000+0  14092-4 0  9993",
    "line2": "2 55173  87.9136   2.1150 0001963  86.4955 273.6401 13.17648113170064"
  },
  {
    "name": "ONEWEB-0711",
    "noradId": "55174",
    "line1": "1 55174U 23004AL  26187.09711320 -.00000488  00000+0 -14132-2 0  9992",
    "line2": "2 55174  87.8881  17.3012 0002203  70.8297 289.3069 13.11416558168319"
  },
  {
    "name": "ONEWEB-0713",
    "noradId": "55175",
    "line1": "1 55175U 23004AM  26187.03947707  .00000208  00000+0  55177-3 0  9990",
    "line2": "2 55175  87.8882  17.3144 0002037  78.3855 281.7501 13.11417571168295"
  },
  {
    "name": "ONEWEB-0715",
    "noradId": "55176",
    "line1": "1 55176U 23004AN  26187.03438563 -.00000121  00000+0 -37649-3 0  9996",
    "line2": "2 55176  87.8881  17.3160 0002490  96.0354 264.1057 13.11417408168332"
  },
  {
    "name": "ONEWEB-0716",
    "noradId": "55177",
    "line1": "1 55177U 23004AP  26187.02918982 -.00000016  00000+0 -75649-4 0  9990",
    "line2": "2 55177  87.9136   2.1193 0001691  95.6695 264.4630 13.17648174170065"
  },
  {
    "name": "ONEWEB-0717",
    "noradId": "55178",
    "line1": "1 55178U 23004AQ  26187.01232776  .00000028  00000+0  38440-4 0  9999",
    "line2": "2 55178  87.9147   2.1120 0002285  80.4393 279.6996 13.17649259170119"
  },
  {
    "name": "ONEWEB-0719",
    "noradId": "55179",
    "line1": "1 55179U 23004AR  26186.94651326  .00000063  00000+0  12941-3 0  9993",
    "line2": "2 55179  87.9146   2.1055 0001661  90.1208 270.0114 13.17650569170052"
  },
  {
    "name": "ONEWEB-0530",
    "noradId": "55796",
    "line1": "1 55796U 23029A   26187.18064229  .00000129  00000+0  28597-3 0  9999",
    "line2": "2 55796  87.9181 270.6829 0001998  86.0725 274.0637 13.20772347163653"
  }
]